BEIDOU-3 M10 (C30)      
1 43246U 18029B   25014.18180042 -.00000094  00000+0  00000+0 0  9997
2 43246  54.6504 318.0618 0004760 358.2604   1.7399  1.86228873 46214
BEIDOU-2 IGSO-7 (C16)   
1 43539U 18057A   25014.34343839 -.00000111  00000+0  00000+0 0  9996
2 43539  55.1595 167.5450 0079822 232.2197 307.1565  1.00247387 23934
BEIDOU-3 M5 (C23)       
1 43581U 18062A   25011.18603858  .00000099  00000+0  00000+0 0  9992
2 43581  54.1126 200.0529 0001638 353.5668   6.4578  1.86228582 43913
BEIDOU-3 M6 (C24)       
1 43582U 18062B   25011.05077902  .00000101  00000+0  00000+0 0  9998
2 43582  54.1122 200.0470 0007371  44.9253 315.1618  1.86229517 43910
BEIDOU-3 M12 (C26)      
1 43602U 18067A   25012.05903043  .00000083  00000+0  00000+0 0  9990
2 43602  54.2044 198.7133 0008642  37.1757 322.9022  1.86227732 43418
BEIDOU-3 M11 (C25)      
1 43603U 18067B   25012.19263823  .00000081  00000+0  00000+0 0  9999
2 43603  54.2017 198.6734 0005221  33.9959 326.0546  1.86227218 43441
BEIDOU-3 M13 (C32)      
1 43622U 18072A   25012.69000029 -.00000051  00000+0  00000+0 0  9996
2 43622  56.1663  79.9006 0007195 292.8581  67.1193  1.86230964 42961
BEIDOU-3 M14 (C33)      
1 43623U 18072B   25013.62938979 -.00000044  00000+0  00000+0 0  9997
2 43623  56.1689  79.8627 0004424 316.1048  43.9180  1.86230947 42978
